PIESAT A                
1 56153U 23047A   26068.57334807  .00005852  00000+0  32318-3 0  9994
2 56153  97.5034 257.1452 0002367  89.9230 270.2273 15.14302818162729
PIESAT C                
1 56155U 23047C   26068.57334840  .00004309  00000+0  23896-3 0  9990
2 56155  97.5027 257.1489 0001962  78.3327 281.8125 15.14301617162722
